{
  "norad_id": 63366,
  "name": "STARLINK-33742",
  "history": [
    {
      "epoch": "2026-03-28T20:11:09.553056Z",
      "apogee_km": 476.0288060048806,
      "perigee_km": 474.3979827450339,
      "latitude_deg": 2.2135900370572523e-05,
      "longitude_deg": -165.68003283871633,
      "height_km": 475.3723790005795,
      "semi_major_axis_km": 6853.3503943749565,
      "eccentricity": 0.00011898,
      "inclination_deg": 53.1612,
      "raan_deg": 323.3655,
      "arg_perigee_deg": 24.7942,
      "mean_anomaly_deg": 335.3116,
      "mean_motion_rev_day": 15.30200561
    },
    {
      "epoch": "2026-03-29T00:53:19.041216Z",
      "apogee_km": 476.1086688882715,
      "perigee_km": 474.31857370598755,
      "latitude_deg": 6.388358275422646e-06,
      "longitude_deg": 122.67659100440585,
      "height_km": 476.04108375988704,
      "semi_major_axis_km": 6853.350621297129,
      "eccentricity": 0.0001306,
      "inclination_deg": 53.1624,
      "raan_deg": 322.4548,
      "arg_perigee_deg": 85.4613,
      "mean_anomaly_deg": 274.6537,
      "mean_motion_rev_day": 15.30200485
    },
    {
      "epoch": "2026-03-30T00:24:06.956352Z",
      "apogee_km": 475.9108510420492,
      "perigee_km": 474.4854943928276,
      "latitude_deg": 2.2371517968179446e-05,
      "longitude_deg": 124.46119970289865,
      "height_km": 476.1351031242,
      "semi_major_axis_km": 6853.335172717439,
      "eccentricity": 0.00010399,
      "inclination_deg": 53.16,
      "raan_deg": 317.9047,
      "arg_perigee_deg": 93.1002,
      "mean_anomaly_deg": 267.0118,
      "mean_motion_rev_day": 15.30205659
    },
    {
      "epoch": "2026-03-30T14:30:35.943552Z",
      "apogee_km": 476.0396342747599,
      "perigee_km": 474.2934125369966,
      "latitude_deg": 2.4075379872085166e-05,
      "longitude_deg": -90.46907545646802,
      "height_km": 476.0827550170275,
      "semi_major_axis_km": 6853.303523405878,
      "eccentricity": 0.0001274,
      "inclination_deg": 53.1608,
      "raan_deg": 315.1746,
      "arg_perigee_deg": 91.1861,
      "mean_anomaly_deg": 268.9286,
      "mean_motion_rev_day": 15.30216259
    },
    {
      "epoch": "2026-03-30T20:46:48.629568Z",
      "apogee_km": 476.0927366094402,
      "perigee_km": 474.307305248748,
      "latitude_deg": 5.565236049225093e-06,
      "longitude_deg": 174.00534507880377,
      "height_km": 476.40614661941106,
      "semi_major_axis_km": 6853.337020929094,
      "eccentricity": 0.00013026,
      "inclination_deg": 53.1613,
      "raan_deg": 313.9594,
      "arg_perigee_deg": 110.1725,
      "mean_anomaly_deg": 249.9416,
      "mean_motion_rev_day": 15.3020504
    },
    {
      "epoch": "2026-03-31T07:45:11.305728Z",
      "apogee_km": 476.08364506237285,
      "perigee_km": 474.33796031007205,
      "latitude_deg": -4.595882806556385e-05,
      "longitude_deg": 6.837379616095984,
      "height_km": 476.1422856011861,
      "semi_major_axis_km": 6853.347802686222,
      "eccentricity": 0.00012736,
      "inclination_deg": 53.1603,
      "raan_deg": 311.8366,
      "arg_perigee_deg": 92.1912,
      "mean_anomaly_deg": 267.9234,
      "mean_motion_rev_day": 15.30201429
    },
    {
      "epoch": "2026-03-31T23:25:43.129632Z",
      "apogee_km": 475.856555482771,
      "perigee_km": 474.51536017992476,
      "latitude_deg": 5.711771831325008e-05,
      "longitude_deg": 128.02758754776764,
      "height_km": 476.1518875621101,
      "semi_major_axis_km": 6853.322957831348,
      "eccentricity": 9.785e-05,
      "inclination_deg": 53.1593,
      "raan_deg": 308.8031,
      "arg_perigee_deg": 95.78,
      "mean_anomaly_deg": 264.3313,
      "mean_motion_rev_day": 15.3020975
    },
    {
      "epoch": "2026-04-02T20:53:15.480384Z",
      "apogee_km": 476.2026992890378,
      "perigee_km": 474.05762666702685,
      "latitude_deg": 1.4099454616145583e-05,
      "longitude_deg": 155.47592834106038,
      "height_km": 475.9744777587706,
      "semi_major_axis_km": 6853.2671629780325,
      "eccentricity": 0.0001565,
      "inclination_deg": 53.1594,
      "raan_deg": 300.0032,
      "arg_perigee_deg": 87.1516,
      "mean_anomaly_deg": 272.9664,
      "mean_motion_rev_day": 15.30228437
    },
    {
      "epoch": "2026-04-03T20:24:03.631392Z",
      "apogee_km": 475.93786170232215,
      "perigee_km": 474.6686045711449,
      "latitude_deg": -1.2174892527551073e-05,
      "longitude_deg": 157.26041958170774,
      "height_km": 476.0377696201093,
      "semi_major_axis_km": 6853.440233136733,
      "eccentricity": 9.26e-05,
      "inclination_deg": 53.1576,
      "raan_deg": 295.454,
      "arg_perigee_deg": 75.0444,
      "mean_anomaly_deg": 285.0659,
      "mean_motion_rev_day": 15.30170473
    },
    {
      "epoch": "2026-04-04T19:54:51.944832Z",
      "apogee_km": 475.81095089896917,
      "perigee_km": 474.5663869574928,
      "latitude_deg": -4.398670657069268e-05,
      "longitude_deg": 159.0428272172285,
      "height_km": 476.1274424972052,
      "semi_major_axis_km": 6853.325668928231,
      "eccentricity": 9.08e-05,
      "inclination_deg": 53.1586,
      "raan_deg": 290.9034,
      "arg_perigee_deg": 93.7178,
      "mean_anomaly_deg": 266.3926,
      "mean_motion_rev_day": 15.30208842
    },
    {
      "epoch": "2026-04-05T13:09:26.111232Z",
      "apogee_km": 475.8905935870598,
      "perigee_km": 474.30927769652953,
      "latitude_deg": -3.449389705482628e-06,
      "longitude_deg": -103.64404134201064,
      "height_km": 475.83507839357696,
      "semi_major_axis_km": 6853.236935641794,
      "eccentricity": 0.00011537,
      "inclination_deg": 53.1588,
      "raan_deg": 287.567,
      "arg_perigee_deg": 78.1017,
      "mean_anomaly_deg": 282.0113,
      "mean_motion_rev_day": 15.30238561
    }
  ]
}